[{"OBJECT_NAME":"GENMAT-1","OBJECT_ID":"2023-174W","EPOCH":"2026-03-09T18:03:23.351040","MEAN_MOTION":15.32594666,"ECCENTRICITY":0.00074416,"INCLINATION":97.3728,"RA_OF_ASC_NODE":146.8236,"ARG_OF_PERICENTER":169.2515,"MEAN_ANOMALY":190.8888,"EPHEMERIS_TYPE":0,"CLASSIFICATION_TYPE":"U","NORAD_CAT_ID":58276,"ELEMENT_SET_NO":999,"REV_AT_EPOCH":12973,"BSTAR":0.00042157222,"MEAN_MOTION_DOT":0.0001321,"MEAN_MOTION_DDOT":0},{"OBJECT_NAME":"STARLINK-35213","OBJECT_ID":"2025-210S","EPOCH":"2026-03-09T21:31:24.523968","MEAN_MOTION":15.3019402,"ECCENTRICITY":0.00015849,"INCLINATION":53.16,"RA_OF_ASC_NODE":306.0561,"ARG_OF_PERICENTER":148.5233,"MEAN_ANOMALY":211.5862,"EPHEMERIS_TYPE":0,"CLASSIFICATION_TYPE":"U","NORAD_CAT_ID":65638,"ELEMENT_SET_NO":999,"REV_AT_EPOCH":2776,"BSTAR":0.00086406085,"MEAN_MOTION_DOT":0.00025314,"MEAN_MOTION_DDOT":0}]
